STARLINK-30988          
1 58529U 23191X   25247.68256278 -.00001651  00000+0 -10726-3 0  9992
2 58529  43.0049  36.4646 0001497 264.8743  95.1929 15.02516553 97469
STARLINK-31009          
1 58530U 23191Y   25247.67923019  .00000358  00000+0  41562-4 0  9991
2 58530  43.0029  36.4399 0001421 272.3285  87.7395 15.02525496 97488
STARLINK-31012          
1 58531U 23192A   25248.17404381  .00005365  00000+0  19313-3 0  9996
2 58531  53.1586 204.3352 0001251  89.0269 271.0876 15.30201223 97583
STARLINK-31035          
1 58532U 23192B   25248.15239903 -.00000161  00000+0  67007-5 0  9996
2 58532  53.1605 191.3942 0001540  76.9220 283.1953 15.30177016 97761
STARLINK-31036          
1 58533U 23192C   25248.14039672  .00000181  00000+0  18228-4 0  9998
2 58533  53.1591 204.8652 0001504  86.2527 273.8646 15.30199693 97577
STARLINK-30936          
1 58534U 23192D   25248.11409398  .00003470  00000+0  12926-3 0  9994
2 58534  53.1599 194.7572 0001784  90.1592 269.9614 15.30191381 97713
STARLINK-31032          
1 58535U 23192E   25248.17720484  .00002987  00000+0  11295-3 0  9993
2 58535  53.1604 204.3533 0001235  82.1543 277.9598 15.30201364 97582
STARLINK-31037          
1 58536U 23192F   25248.18143990  .00000243  00000+0  20336-4 0  9996
2 58536  53.1607 204.3998 0001097  94.1576 265.9550 15.30190229 97588
STARLINK-31041          
1 58537U 23192G   25248.18036622  .00001794  00000+0  72637-4 0  9993
2 58537  53.1597 204.3718 0000507 111.1115 248.9940 15.30205785 97589
STARLINK-31014          
1 58538U 23192H   25248.25624468  .00017889  00000+0  61451-3 0  9996
2 58538  53.1588 204.1322 0001152 108.8269 251.2857 15.30207866 97596
STARLINK-31055          
1 58539U 23192J   25248.25940740  .00001705  00000+0  69701-4 0  9998
2 58539  53.1594 204.1527 0001394 104.5842 255.5313 15.30192361 97596
STARLINK-31019          
1 58540U 23192K   25248.18459069  .00001765  00000+0  71691-4 0  9998
2 58540  53.1602 204.3980 0001141 100.0121 260.1009 15.30198178 97589
STARLINK-31045          
1 58541U 23192L   25248.26062093  .00003234  00000+0  12124-3 0  9993
2 58541  53.1578 280.8884 0001222  75.3154 284.7983 15.30206428 96506
STARLINK-31030          
1 58542U 23192M   25248.26257190  .00004469  00000+0  16290-3 0  9997
2 58542  53.1601 204.1719 0001374 105.0597 255.0556 15.30202132 97595
STARLINK-31049          
1 58543U 23192N   25248.26573686  .00003360  00000+0  12554-3 0  9997
2 58543  53.1595 204.1914 0002222  90.7621 269.3635 15.30197084 97591
STARLINK-31048          
1 58544U 23192P   25248.16137592  .00004898  00000+0  17739-3 0  9996
2 58544  53.1593 204.2128 0001274  82.5739 277.5407 15.30196618 97582
