[{"OBJECT_NAME":"STARLINK-30988","OBJECT_ID":"2023-191X","EPOCH":"2025-09-04T16:22:53.424192","MEAN_MOTION":15.02516553,"ECCENTRICITY":0.00014978,"INCLINATION":43.0049,"RA_OF_ASC_NODE":36.4646,"ARG_OF_PERICENTER":264.8743,"MEAN_ANOMALY":95.1929,"EPHEMERIS_TYPE":0,"CLASSIFICATION_TYPE":"U","NORAD_CAT_ID":58529,"ELEMENT_SET_NO":999,"REV_AT_EPOCH":9746,"BSTAR":-0.00010725503,"MEAN_MOTION_DOT":-1.651e-5,"MEAN_MOTION_DDOT":0},{"OBJECT_NAME":"STARLINK-31009","OBJECT_ID":"2023-191Y","EPOCH":"2025-09-04T16:18:05.488416","MEAN_MOTION":15.02525496,"ECCENTRICITY":0.00014211,"INCLINATION":43.0029,"RA_OF_ASC_NODE":36.4399,"ARG_OF_PERICENTER":272.3285,"MEAN_ANOMALY":87.7395,"EPHEMERIS_TYPE":0,"CLASSIFICATION_TYPE":"U","NORAD_CAT_ID":58530,"ELEMENT_SET_NO":999,"REV_AT_EPOCH":9748,"BSTAR":4.1561991e-5,"MEAN_MOTION_DOT":3.58e-6,"MEAN_MOTION_DDOT":0},{"OBJECT_NAME":"STARLINK-31012","OBJECT_ID":"2023-192A","EPOCH":"2025-09-05T04:10:37.385184","MEAN_MOTION":15.30201223,"ECCENTRICITY":0.00012514,"INCLINATION":53.1586,"RA_OF_ASC_NODE":204.3352,"ARG_OF_PERICENTER":89.0269,"MEAN_ANOMALY":271.0876,"EPHEMERIS_TYPE":0,"CLASSIFICATION_TYPE":"U","NORAD_CAT_ID":58531,"ELEMENT_SET_NO":999,"REV_AT_EPOCH":9758,"BSTAR":0.00019312965,"MEAN_MOTION_DOT":5.365e-5,"MEAN_MOTION_DDOT":0},{"OBJECT_NAME":"STARLINK-31035","OBJECT_ID":"2023-192B","EPOCH":"2025-09-05T03:39:27.276192","MEAN_MOTION":15.30177016,"ECCENTRICITY":0.00015401,"INCLINATION":53.1605,"RA_OF_ASC_NODE":191.3942,"ARG_OF_PERICENTER":76.922,"MEAN_ANOMALY":283.1953,"EPHEMERIS_TYPE":0,"CLASSIFICATION_TYPE":"U","NORAD_CAT_ID":58532,"ELEMENT_SET_NO":999,"REV_AT_EPOCH":9776,"BSTAR":6.700741e-6,"MEAN_MOTION_DOT":-1.61e-6,"MEAN_MOTION_DDOT":0},{"OBJECT_NAME":"STARLINK-31036","OBJECT_ID":"2023-192C","EPOCH":"2025-09-05T03:22:10.276608","MEAN_MOTION":15.30199693,"ECCENTRICITY":0.00015048,"INCLINATION":53.1591,"RA_OF_ASC_NODE":204.8652,"ARG_OF_PERICENTER":86.2527,"MEAN_ANOMALY":273.8646,"EPHEMERIS_TYPE":0,"CLASSIFICATION_TYPE":"U","NORAD_CAT_ID":58533,"ELEMENT_SET_NO":999,"REV_AT_EPOCH":9757,"BSTAR":1.8227742e-5,"MEAN_MOTION_DOT":1.81e-6,"MEAN_MOTION_DDOT":0},{"OBJECT_NAME":"STARLINK-30936","OBJECT_ID":"2023-192D","EPOCH":"2025-09-05T02:44:17.719872","MEAN_MOTION":15.30191381,"ECCENTRICITY":0.00017849,"INCLINATION":53.1599,"RA_OF_ASC_NODE":194.7572,"ARG_OF_PERICENTER":90.1592,"MEAN_ANOMALY":269.9614,"EPHEMERIS_TYPE":0,"CLASSIFICATION_TYPE":"U","NORAD_CAT_ID":58534,"ELEMENT_SET_NO":999,"REV_AT_EPOCH":9771,"BSTAR":0.00012926037,"MEAN_MOTION_DOT":3.47e-5,"MEAN_MOTION_DDOT":0},{"OBJECT_NAME":"STARLINK-31032","OBJECT_ID":"2023-192E","EPOCH":"2025-09-05T04:15:10.498176","MEAN_MOTION":15.30201364,"ECCENTRICITY":0.00012358,"INCLINATION":53.1604,"RA_OF_ASC_NODE":204.3533,"ARG_OF_PERICENTER":82.1543,"MEAN_ANOMALY":277.9598,"EPHEMERIS_TYPE":0,"CLASSIFICATION_TYPE":"U","NORAD_CAT_ID":58535,"ELEMENT_SET_NO":999,"REV_AT_EPOCH":9758,"BSTAR":0.00011294586,"MEAN_MOTION_DOT":2.987e-5,"MEAN_MOTION_DDOT":0},{"OBJECT_NAME":"STARLINK-31037","OBJECT_ID":"2023-192F","EPOCH":"2025-09-05T04:21:16.407360","MEAN_MOTION":15.30190229,"ECCENTRICITY":0.00010971,"INCLINATION":53.1607,"RA_OF_ASC_NODE":204.3998,"ARG_OF_PERICENTER":94.1576,"MEAN_ANOMALY":265.955,"EPHEMERIS_TYPE":0,"CLASSIFICATION_TYPE":"U","NORAD_CAT_ID":58536,"ELEMENT_SET_NO":999,"REV_AT_EPOCH":9758,"BSTAR":2.0335709e-5,"MEAN_MOTION_DOT":2.43e-6,"MEAN_MOTION_DDOT":0},{"OBJECT_NAME":"STARLINK-31041","OBJECT_ID":"2023-192G","EPOCH":"2025-09-05T04:19:43.641408","MEAN_MOTION":15.30205785,"ECCENTRICITY":5.078e-5,"INCLINATION":53.1597,"RA_OF_ASC_NODE":204.3718,"ARG_OF_PERICENTER":111.1115,"MEAN_ANOMALY":248.994,"EPHEMERIS_TYPE":0,"CLASSIFICATION_TYPE":"U","NORAD_CAT_ID":58537,"ELEMENT_SET_NO":999,"REV_AT_EPOCH":9758,"BSTAR":7.2637092e-5,"MEAN_MOTION_DOT":1.794e-5,"MEAN_MOTION_DDOT":0},{"OBJECT_NAME":"STARLINK-31014","OBJECT_ID":"2023-192H","EPOCH":"2025-09-05T06:08:59.540352","MEAN_MOTION":15.30207866,"ECCENTRICITY":0.0001152,"INCLINATION":53.1588,"RA_OF_ASC_NODE":204.1322,"ARG_OF_PERICENTER":108.8269,"MEAN_ANOMALY":251.2857,"EPHEMERIS_TYPE":0,"CLASSIFICATION_TYPE":"U","NORAD_CAT_ID":58538,"ELEMENT_SET_NO":999,"REV_AT_EPOCH":9759,"BSTAR":0.00061451286,"MEAN_MOTION_DOT":0.00017889,"MEAN_MOTION_DDOT":0},{"OBJECT_NAME":"STARLINK-31055","OBJECT_ID":"2023-192J","EPOCH":"2025-09-05T06:13:32.799360","MEAN_MOTION":15.30192361,"ECCENTRICITY":0.00013943,"INCLINATION":53.1594,"RA_OF_ASC_NODE":204.1527,"ARG_OF_PERICENTER":104.5842,"MEAN_ANOMALY":255.5313,"EPHEMERIS_TYPE":0,"CLASSIFICATION_TYPE":"U","NORAD_CAT_ID":58539,"ELEMENT_SET_NO":999,"REV_AT_EPOCH":9759,"BSTAR":6.9700915e-5,"MEAN_MOTION_DOT":1.705e-5,"MEAN_MOTION_DDOT":0},{"OBJECT_NAME":"STARLINK-31019","OBJECT_ID":"2023-192K","EPOCH":"2025-09-05T04:25:48.635616","MEAN_MOTION":15.30198178,"ECCENTRICITY":0.00011413,"INCLINATION":53.1602,"RA_OF_ASC_NODE":204.398,"ARG_OF_PERICENTER":100.0121,"MEAN_ANOMALY":260.1009,"EPHEMERIS_TYPE":0,"CLASSIFICATION_TYPE":"U","NORAD_CAT_ID":58540,"ELEMENT_SET_NO":999,"REV_AT_EPOCH":9758,"BSTAR":7.1691405e-5,"MEAN_MOTION_DOT":1.765e-5,"MEAN_MOTION_DDOT":0},{"OBJECT_NAME":"STARLINK-31045","OBJECT_ID":"2023-192L","EPOCH":"2025-09-05T06:15:17.648352","MEAN_MOTION":15.30206428,"ECCENTRICITY":0.00012224,"INCLINATION":53.1578,"RA_OF_ASC_NODE":280.8884,"ARG_OF_PERICENTER":75.3154,"MEAN_ANOMALY":284.7983,"EPHEMERIS_TYPE":0,"CLASSIFICATION_TYPE":"U","NORAD_CAT_ID":58541,"ELEMENT_SET_NO":999,"REV_AT_EPOCH":9650,"BSTAR":0.00012123639,"MEAN_MOTION_DOT":3.234e-5,"MEAN_MOTION_DDOT":0},{"OBJECT_NAME":"STARLINK-31030","OBJECT_ID":"2023-192M","EPOCH":"2025-09-05T06:18:06.212160","MEAN_MOTION":15.30202132,"ECCENTRICITY":0.00013741,"INCLINATION":53.1601,"RA_OF_ASC_NODE":204.1719,"ARG_OF_PERICENTER":105.0597,"MEAN_ANOMALY":255.0556,"EPHEMERIS_TYPE":0,"CLASSIFICATION_TYPE":"U","NORAD_CAT_ID":58542,"ELEMENT_SET_NO":999,"REV_AT_EPOCH":9759,"BSTAR":0.00016290201,"MEAN_MOTION_DOT":4.469e-5,"MEAN_MOTION_DDOT":0},{"OBJECT_NAME":"STARLINK-31049","OBJECT_ID":"2023-192N","EPOCH":"2025-09-05T06:22:39.664704","MEAN_MOTION":15.30197084,"ECCENTRICITY":0.00022224,"INCLINATION":53.1595,"RA_OF_ASC_NODE":204.1914,"ARG_OF_PERICENTER":90.7621,"MEAN_ANOMALY":269.3635,"EPHEMERIS_TYPE":0,"CLASSIFICATION_TYPE":"U","NORAD_CAT_ID":58543,"ELEMENT_SET_NO":999,"REV_AT_EPOCH":9759,"BSTAR":0.0001255373,"MEAN_MOTION_DOT":3.36e-5,"MEAN_MOTION_DDOT":0},{"OBJECT_NAME":"STARLINK-31048","OBJECT_ID":"2023-192P","EPOCH":"2025-09-05T03:52:22.879488","MEAN_MOTION":15.30196618,"ECCENTRICITY":0.00012741,"INCLINATION":53.1593,"RA_OF_ASC_NODE":204.2128,"ARG_OF_PERICENTER":82.5739,"MEAN_ANOMALY":277.5407,"EPHEMERIS_TYPE":0,"CLASSIFICATION_TYPE":"U","NORAD_CAT_ID":58544,"ELEMENT_SET_NO":999,"REV_AT_EPOCH":9758,"BSTAR":0.00017738928,"MEAN_MOTION_DOT":4.898e-5,"MEAN_MOTION_DDOT":0}]
